# Made by eph2tle, compiled Dec 24 2023 21:50:40
# Run at Mon Dec 25 15:00:15 2023
#
#    The following TLEs (Two-Line Elements) were generated by fitting
# a numerically-integrated ephemeris,  based on the orbit given below,
# to the SDP4/SGP4 models.  Each TLE is good for the interval between
# its epoch and the epoch of the subsequent TLE (usually one day).
# The maximum deviation between the numerically integrated ephemerides
# and the TLE-based ephemeris, in kilometers,  is given for each TLE
# as the "worst residual".
#
#    This fitting is done using the 'eph2tle' code packaged with Find_Orb.
# The code has details on how the TLEs were computed :
#
#    https://github.com/Bill-Gray/find_orb/eph2tle.cpp
#
#    Be warned:  the error given is that between the numerically
# integrated ephems and the TLE model.  There will usually be at
# least some additional difference between the ephems and the actual
# motion of the satellite,  especially if the ephemerides are based
# on a short arc.  If the following orbital elements say something
# like "[based on] 10 observations 2015 Jan. 1-13",  and the TLEs
# are for 2015 May,  the extrapolation may be tenuous at best.  If
# your application requires a specific level of accuracy,  you may
# want to contact me;  I can give you some idea as to the fit of the
# underlying data (and possibly TLEs based on newer data).
#
#   You can usually find the underlying observational data,  and the
# fitted orbit,  residuals,  ephemerides,  and sometimes some comments
# about the object,  among the pages listed at
#
#    https://www.projectpluto.com/pluto/mpecs/pseudo.htm
#
#    WARNING:  for this object,  "normal" TLEs cannot be fitted.  (This
# usually means an object with an hyperbolic or nearly-parabolic orbit.)
# For this and similar cases,   an alternative model is used,  in which
# most of the traditional TLE data is replaced by six signed 8-digit hex
# numbers.  These six numbers are a state vector,  numerically integrated
# using a simplified force model.  This is necessary for objects at L2 or
# L1,  and sometimes for objects in high orbits where the SDP4/SGP4 model
# fails.  Some documentation is in 'get_el.cpp' in the source code at
# https://www.github.com/Bill-Gray/sat_code ; look for 'hex' in that file,
# with the actual integration done in 'sdp4.cpp'.  But be aware:  it's my
# own extension,  doesn't work with other code,  and is therefore used
# only when necessary.
#
#    Also,  if you use a TLE outside the "correct" time range (between
# its MJD and that of the next TLE),  all bets are off.  I've carefully
# computed and minimized the worst error over the "correct" time frame,
# but the ephemeris may (or may not) diverge wildly outside of it.
#
# Ephem range: 60167.000000 60366.000000 1.000000
# Created Mon Dec 25 15:00:04 2023
# Ephemeris start: 11 Aug 2023  0:00:00
# Ephemeris end:   26 Feb 2024  0:00:00
# Times are all TDT
# Positions/velocities are in equatorial J2000
# Orbital elements:  2023-118B = NORAD 57601 = Fregat No. 122-10
#    Perigee 2023 Dec 13.08168 +/- 4.39e-6 TT =  1:57:37 (JD 2460291.58168)
# Epoch 2023 Dec  7.0 TT; AMR 0.0086232 +/- 3.49e-5 m^2/kg         Find_Orb
# M 224.08600637 +/- 0.00011          (J2000 equator)
# n  22.34809648 +/- 3.74e-6          Peri.  211.42409 +/- 0.000022
# a269428.260 +/- 0.0301              Node   116.69068 +/- 0.000027
# e   0.5315245 +/- 3.71e-7           Incl.   43.29980 +/- 0.000029
# P  16.1085d                H 26.50  G  0.15   U  4.4
# q 126220.517 +/- 0.108    Q 412636.004 +/- 0.0858
# From 171 observations 2023 Oct. 5-Dec. 24; mean residual 1".653
#
# 1 NoradU COSPAR   Epoch.epoch     dn/dt/2  d2n/dt2/6 BSTAR    T El# C
# 2 NoradU Inclina RAAscNode Eccent  ArgPeri MeanAno  MeanMotion Rev# C

# Worst residual: 169.07 km
# MJD 60167.000000 (2023 Aug 11  0:00)
2023-118B = NORAD 57601 = Fregat No. 122-10
1 57601U 23118B   23222.99919926 -00037A33 -0003N3WO -0005ICLKH 21856
2 57601                          +0018OYJ4 +0000BOEW +000F9G3O     06

# Worst residual: 0.85 km
# MJD 60168.000000 (2023 Aug 12  0:00)
2023-118B = NORAD 57601 = Fregat No. 122-10
1 57601U 23118B   23223.99919926 -0026J1Z5 +001Y4IAW +001NAFCAH 21858
2 57601                          -00074Z6W +0004BOAV +0002VOLD     05

# Worst residual: 0.91 km
# MJD 60169.000000 (2023 Aug 13  0:00)
2023-118B = NORAD 57601 = Fregat No. 122-10
1 57601U 23118B   23224.99919926 -003LFFSO +002QJHDA +0024R6L7H 21853
2 57601                          -0004WB6M +0002IIUF +0001E6J2     03

# Worst residual: 2.42 km
# MJD 60170.000000 (2023 Aug 14  0:00)
2023-118B = NORAD 57601 = Fregat No. 122-10
1 57601U 23118B   23225.99919926 -004LHJOW +0037WGPV +002DD9FFH 21855
2 57601                          -0003ITA6 +0001KUQ2 +0000NSZV     04

# Worst residual: 5.76 km
# MJD 60171.000000 (2023 Aug 15  0:00)
2023-118B = NORAD 57601 = Fregat No. 122-10
1 57601U 23118B   23226.99919926 -005B1A71 +003IR28Z +002GVIIWH 21850
2 57601                          -0002EOVR +0000Z3YZ +00006DUN     03

# Worst residual: 63.21 km
# MJD 60172.000000 (2023 Aug 16  0:00)
2023-118B = NORAD 57601 = Fregat No. 122-10
1 57601U 23118B   23227.99919926 -005QLMT4 +003PJPC4 +002GNM9MH 21859
2 57601                          -00012669 +0000N0F2 -000099B1     08

# Worst residual: 35.30 km
# MJD 60173.000000 (2023 Aug 17  0:00)
2023-118B = NORAD 57601 = Fregat No. 122-10
1 57601U 23118B   23228.99919926 -005RD6W9 +003QQRTW +0029V2A7H 21856
2 57601                          +0000KN5W -0000IPBD -0001A579     00

# Worst residual: 7.16 km
# MJD 60174.000000 (2023 Aug 18  0:00)
2023-118B = NORAD 57601 = Fregat No. 122-10
1 57601U 23118B   23229.99919926 -005IX704 +003IB1E4 +001WLCRJH 21859
2 57601                          +0001EIZT -0001DKZV -0001R0RO     06

# Worst residual: 2.42 km
# MJD 60175.000000 (2023 Aug 19  0:00)
2023-118B = NORAD 57601 = Fregat No. 122-10
1 57601U 23118B   23230.99919926 -0052GQ5S +00335OS3 +001FU56XH 21854
2 57601                          +0002GE8V -000251GW -00024IOI     07

# Worst residual: 0.80 km
# MJD 60176.000000 (2023 Aug 20  0:00)
2023-118B = NORAD 57601 = Fregat No. 122-10
1 57601U 23118B   23231.99919926 -004B9MYJ +002GUQBR +000VUBE6H 21858
2 57601                          +0003Y1LB -00032JHV -0002I8JX     02

# Worst residual: 0.15 km
# MJD 60177.000000 (2023 Aug 21  0:00)
2023-118B = NORAD 57601 = Fregat No. 122-10
1 57601U 23118B   23232.99919926 -00330WG5 +001KL8D1 +0008HK5KH 21852
2 57601                          +0006NHBC -0004K5I0 -0002W225     09

# Worst residual: 57.69 km
# MJD 60178.000000 (2023 Aug 22  0:00)
2023-118B = NORAD 57601 = Fregat No. 122-10
1 57601U 23118B   23233.99919926 -000E6NVO +0000P47P -000C54EHH 21856
2 57601                          +000QNSA7 -000AIXF8 +00046DZW     07

# Worst residual: 0.30 km
# MJD 60179.000000 (2023 Aug 23  0:00)
2023-118B = NORAD 57601 = Fregat No. 122-10
1 57601U 23118B   23234.99919926 -001P42ZR +001STQNQ +0020OK1IH 21851
2 57601                          -0006RHR9 +00051CB6 +0003PTAQ     02

# Worst residual: 0.36 km
# MJD 60180.000000 (2023 Aug 24  0:00)
2023-118B = NORAD 57601 = Fregat No. 122-10
1 57601U 23118B   23235.99919926 -0031T4YF +002QNVA6 +002MH13RH 21853
2 57601                          -0004QIK3 +00032KSJ +0001O0DG     05

# Worst residual: 0.34 km
# MJD 60181.000000 (2023 Aug 25  0:00)
2023-118B = NORAD 57601 = Fregat No. 122-10
1 57601U 23118B   23236.99919926 -00413PWK +003CBM0U +002WBKQHH 21855
2 57601                          -0003I561 +00020MOC +0000P3QH     02

# Worst residual: 0.25 km
# MJD 60182.000000 (2023 Aug 26  0:00)
2023-118B = NORAD 57601 = Fregat No. 122-10
1 57601U 23118B   23237.99919926 -004R62YO +003QDAN8 +002ZGEQSH 21858
2 57601                          -0002K704 +00019KV4 +00002A6Q     07

# Worst residual: 0.20 km
# MJD 60183.000000 (2023 Aug 27  0:00)
2023-118B = NORAD 57601 = Fregat No. 122-10
1 57601U 23118B   23238.99919926 -0059QHYW +003YL8RM +002XUOL3H 21854
2 57601                          -0001R2EH +0000NHK4 -0000EZTG     00

# Worst residual: 0.25 km
# MJD 60184.000000 (2023 Aug 28  0:00)
2023-118B = NORAD 57601 = Fregat No. 122-10
1 57601U 23118B   23239.99919926 -005LLYQO +0041TW7V +002SHQF6H 21850
2 57601                          -000102SD +00003RJ4 -0000TB0L     03

# Worst residual: 0.36 km
# MJD 60185.000000 (2023 Aug 29  0:00)
2023-118B = NORAD 57601 = Fregat No. 122-10
1 57601U 23118B   23240.99919926 -005R2WFG +0040GNLT +002JWZSVH 21850
2 57601                          -00009FIE -0000F4NM -00015YNL     03

# Worst residual: 0.40 km
# MJD 60186.000000 (2023 Aug 30  0:00)
2023-118B = NORAD 57601 = Fregat No. 122-10
1 57601U 23118B   23241.99919926 -005Q1488 +003UJAZD +0028F0RZH 21857
2 57601                          +0000IK17 -0000YFD2 -0001HS0I     04

# Worst residual: 0.50 km
# MJD 60187.000000 (2023 Aug 31  0:00)
2023-118B = NORAD 57601 = Fregat No. 122-10
1 57601U 23118B   23242.99919926 -005HW996 +003JSRGC +001U4DOQH 21856
2 57601                          +0001E24B -0001JH8H -0001TCVB     00

# Worst residual: 0.61 km
# MJD 60188.000000 (2023 Sep  1  0:00)
2023-118B = NORAD 57601 = Fregat No. 122-10
1 57601U 23118B   23243.99919926 -0051FNIM +0033LVW0 +001D0SLJH 21853
2 57601                          +0002GSI7 -00028BLC -000258A9     06

# Worst residual: 0.60 km
# MJD 60189.000000 (2023 Sep  2  0:00)
2023-118B = NORAD 57601 = Fregat No. 122-10
1 57601U 23118B   23244.99919926 -004A25UT +002GMA76 +000SZP2MH 21859
2 57601                          +0003Z7B2 -0003578J -0002HTQN     00

# Worst residual: 0.81 km
# MJD 60190.000000 (2023 Sep  3  0:00)
2023-118B = NORAD 57601 = Fregat No. 122-10
1 57601U 23118B   23245.99919926 -0031BLMM +001JN7C7 +0005WW0VH 21856
2 57601                          +0006R2A6 -0004NRJJ -0002TVMR     03

